start=new Date('2022-04-06T00:00:00.000Z').valueOf();
sats=[{"EPOCH":"2022-04-05T21:57:45.232704","RA_OF_ASC_NODE":"63.0746","INCLINATION":"53.0559","MEAN_MOTION_DDOT":"0.0000000000000","TLE_LINE2":"2 45540  53.0559  63.0746 0001635  65.8477 294.2683 15.06400541108981","TLE_LINE1":"1 45540U 20025K   22095.91510686  .00001716  00000-0  13407-3 0  9994","COUNTRY_CODE":"US","MEAN_ELEMENT_THEORY":"SGP4","FILE":"3389912","APOAPSIS":"548.344","LAUNCH_DATE":"2020-04-22","PERIAPSIS":"546.080","OBJECT_TYPE":"PAYLOAD","NORAD_CAT_ID":"45540","SITE":"AFETR","SEMIMAJOR_AXIS":"6925.347","OBJECT_ID":"2020-025K","ECCENTRICITY":"0.00016350","DECAY_DATE":null,"OBJECT_NAME":"STARLINK-1368","GP_ID":"200542520","MEAN_MOTION":"15.06400541","MEAN_ANOMALY":"294.2683","PERIOD":"95.592","ARG_OF_PERICENTER":"65.8477","REF_FRAME":"TEME","ELEMENT_SET_NO":"999","CENTER_NAME":"EARTH","BSTAR":"0.00013407000000","TIME_SYSTEM":"UTC","RCS_SIZE":"LARGE","MEAN_MOTION_DOT":"0.00001716","REV_AT_EPOCH":"10898","EPHEMERIS_TYPE":"0","CLASSIFICATION_TYPE":"U"},{"INCLINATION":"53.0545","TLE_LINE2":"2 45541  53.0545  63.0549 0001689  59.9430 300.1727 15.06395563108983","TLE_LINE1":"1 45541U 20025L   22095.91879588  .00001468  00000-0  11742-3 0  9998","MEAN_MOTION_DDOT":"0.0000000000000","EPOCH":"2022-04-05T22:03:03.964032","RA_OF_ASC_NODE":"63.0549","OBJECT_TYPE":"PAYLOAD","NORAD_CAT_ID":"45541","PERIAPSIS":"546.057","LAUNCH_DATE":"2020-04-22","APOAPSIS":"548.397","COUNTRY_CODE":"US","FILE":"3389912","MEAN_ELEMENT_THEORY":"SGP4","MEAN_ANOMALY":"300.1727","PERIOD":"95.592","ARG_OF_PERICENTER":"59.9430","REF_FRAME":"TEME","GP_ID":"200540769","MEAN_MOTION":"15.06395563","OBJECT_NAME":"STARLINK-1369","DECAY_DATE":null,"OBJECT_ID":"2020-025L","SEMIMAJOR_AXIS":"6925.362","SITE":"AFETR","ECCENTRICITY":"0.00016890","CLASSIFICATION_TYPE":"U","REV_AT_EPOCH":"10898","EPHEMERIS_TYPE":"0","RCS_SIZE":"LARGE","TIME_SYSTEM":"UTC","MEAN_MOTION_DOT":"0.00001468","CENTER_NAME":"EARTH","ELEMENT_SET_NO":"999","BSTAR":"0.00011742000000"},{"MEAN_MOTION_DOT":"0.00003523","RCS_SIZE":"LARGE","TIME_SYSTEM":"UTC","CLASSIFICATION_TYPE":"U","EPHEMERIS_TYPE":"0","REV_AT_EPOCH":"10898","BSTAR":"0.00025528000000","CENTER_NAME":"EARTH","ELEMENT_SET_NO":"999","MEAN_MOTION":"15.06402651","GP_ID":"200541019","REF_FRAME":"TEME","PERIOD":"95.592","MEAN_ANOMALY":"299.6146","ARG_OF_PERICENTER":"60.4995","ECCENTRICITY":"0.00015280","OBJECT_ID":"2020-025M","SEMIMAJOR_AXIS":"6925.340","SITE":"AFETR","OBJECT_NAME":"STARLINK-1371","DECAY_DATE":null,"LAUNCH_DATE":"2020-04-22","PERIAPSIS":"546.147","NORAD_CAT_ID":"45542","OBJECT_TYPE":"PAYLOAD","FILE":"3389912","MEAN_ELEMENT_THEORY":"SGP4","COUNTRY_CODE":"US","APOAPSIS":"548.264","TLE_LINE1":"1 45542U 20025M   22095.88561739  .00003523  00000-0  25528-3 0  9992","TLE_LINE2":"2 45542  53.0547  63.2187 0001528  60.4995 299.6146 15.06402651108985","MEAN_MOTION_DDOT":"0.0000000000000","INCLINATION":"53.0547","RA_OF_ASC_NODE":"63.2187","EPOCH":"2022-04-05T21:15:17.342496"},{"ELEMENT_SET_NO":"999","CENTER_NAME":"EARTH","BSTAR":"0.00017649000000","TIME_SYSTEM":"UTC","RCS_SIZE":"LARGE","MEAN_MOTION_DOT":"0.00002348","EPHEMERIS_TYPE":"0","REV_AT_EPOCH":"10808","CLASSIFICATION_TYPE":"U","SEMIMAJOR_AXIS":"6925.356","SITE":"AFETR","OBJECT_ID":"2020-025N","ECCENTRICITY":"0.00017410","DECAY_DATE":null,"OBJECT_NAME":"STARLINK-1372","GP_ID":"200542270","MEAN_MOTION":"15.06397543","PERIOD":"95.592","MEAN_ANOMALY":"307.6208","ARG_OF_PERICENTER":"52.4939","REF_FRAME":"TEME","COUNTRY_CODE":"US","MEAN_ELEMENT_THEORY":"SGP4","FILE":"3389912","APOAPSIS":"548.427","LAUNCH_DATE":"2020-04-22","PERIAPSIS":"546.015","OBJECT_TYPE":"PAYLOAD","NORAD_CAT_ID":"45543","EPOCH":"2022-04-05T22:08:21.909120","RA_OF_ASC_NODE":"63.0479","INCLINATION":"53.0564","MEAN_MOTION_DDOT":"0.0000000000000","TLE_LINE2":"2 45543  53.0564  63.0479 0001741  52.4939 307.6208 15.06397543108086","TLE_LINE1":"1 45543U 20025N   22095.92247580  .00002348  00000-0  17649-3 0  9992"},{"MEAN_ANOMALY":"276.5579","PERIOD":"95.593","ARG_OF_PERICENTER":"83.5570","REF_FRAME":"TEME","GP_ID":"200542021","MEAN_MOTION":"15.06392322","DECAY_DATE":null,"OBJECT_NAME":"STARLINK-1373","SEMIMAJOR_AXIS":"6925.372","SITE":"AFETR","OBJECT_ID":"2020-025P","ECCENTRICITY":"0.00014040","REV_AT_EPOCH":"10898","EPHEMERIS_TYPE":"0","CLASSIFICATION_TYPE":"U","TIME_SYSTEM":"UTC","RCS_SIZE":"LARGE","MEAN_MOTION_DOT":"0.00001896","ELEMENT_SET_NO":"999","CENTER_NAME":"EARTH","BSTAR":"0.00014614000000","INCLINATION":"53.0551","TLE_LINE2":"2 45544  53.0551  63.2696 0001404  83.5570 276.5579 15.06392322108982","MEAN_MOTION_DDOT":"0.0000000000000","TLE_LINE1":"1 45544U 20025P   22095.87456417  .00001896  00000-0  14614-3 0  9994","EPOCH":"2022-04-05T20:59:22.344288","RA_OF_ASC_NODE":"63.2696","OBJECT_TYPE":"PAYLOAD","NORAD_CAT_ID":"45544","LAUNCH_DATE":"2020-04-22","PERIAPSIS":"546.265","APOAPSIS":"548.209","COUNTRY_CODE":"US","MEAN_ELEMENT_THEORY":"SGP4","FILE":"3389912"},{"MEAN_MOTION":"15.06411996","GP_ID":"200541269","REF_FRAME":"TEME","PERIOD":"95.591","MEAN_ANOMALY":"300.3625","ARG_OF_PERICENTER":"59.7507","ECCENTRICITY":"0.00014460","OBJECT_ID":"2020-025Q","SEMIMAJOR_AXIS":"6925.312","SITE":"AFETR","OBJECT_NAME":"STARLINK-1374","DECAY_DATE":null,"MEAN_MOTION_DOT":"0.00002735","RCS_SIZE":"LARGE","TIME_SYSTEM":"UTC","CLASSIFICATION_TYPE":"U","EPHEMERIS_TYPE":"0","REV_AT_EPOCH":"10892","BSTAR":"0.00020237000000","CENTER_NAME":"EARTH","ELEMENT_SET_NO":"999","TLE_LINE2":"2 45545  53.0526  64.3668 0001446  59.7507 300.3625 15.06411996108928","MEAN_MOTION_DDOT":"0.0000000000000","TLE_LINE1":"1 45545U 20025Q   22095.62759993  .00002735  00000-0  20237-3 0  9994","INCLINATION":"53.0526","RA_OF_ASC_NODE":"64.3668","EPOCH":"2022-04-05T15:03:44.633952","LAUNCH_DATE":"2020-04-22","PERIAPSIS":"546.175","NORAD_CAT_ID":"45545","OBJECT_TYPE":"PAYLOAD","FILE":"3389912","MEAN_ELEMENT_THEORY":"SGP4","COUNTRY_CODE":"US","APOAPSIS":"548.178"},{"INCLINATION":"53.0555","TLE_LINE2":"2 45546  53.0555  64.3152 0001535  70.2734 289.8421 15.06413903108945","TLE_LINE1":"1 45546U 20025R   22095.63867002  .00011134  00000-0  76492-3 0  9994","MEAN_MOTION_DDOT":"0.0000000000000","EPOCH":"2022-04-05T15:19:41.089728","RA_OF_ASC_NODE":"64.3152","OBJECT_TYPE":"PAYLOAD","NORAD_CAT_ID":"45546","LAUNCH_DATE":"2020-04-22","PERIAPSIS":"546.108","APOAPSIS":"548.234","COUNTRY_CODE":"US","FILE":"3389912","MEAN_ELEMENT_THEORY":"SGP4","MEAN_ANOMALY":"289.8421","PERIOD":"95.591","ARG_OF_PERICENTER":"70.2734","REF_FRAME":"TEME","GP_ID":"200541519","MEAN_MOTION":"15.06413903","DECAY_DATE":null,"OBJECT_NAME":"STARLINK-1375","SITE":"AFETR","SEMIMAJOR_AXIS":"6925.306","OBJECT_ID":"2020-025R","ECCENTRICITY":"0.00015350","REV_AT_EPOCH":"10894","EPHEMERIS_TYPE":"0","CLASSIFICATION_TYPE":"U","TIME_SYSTEM":"UTC","RCS_SIZE":"LARGE","MEAN_MOTION_DOT":"0.00011134","ELEMENT_SET_NO":"999","CENTER_NAME":"EARTH","BSTAR":"0.00076492000000"},{"TLE_LINE1":"1 45547U 20025S   22095.63497321  .00002879  00000-0  21206-3 0  9997","TLE_LINE2":"2 45547  53.0553  64.3303 0001420  65.8973 294.2165 15.06404510108950","MEAN_MOTION_DDOT":"0.0000000000000","INCLINATION":"53.0553","RA_OF_ASC_NODE":"64.3303","EPOCH":"2022-04-05T15:14:21.685344","NORAD_CAT_ID":"45547","OBJECT_TYPE":"PAYLOAD","LAUNCH_DATE":"2020-04-22","PERIAPSIS":"546.216","APOAPSIS":"548.183","MEAN_ELEMENT_THEORY":"SGP4","FILE":"3389912","COUNTRY_CODE":"US","REF_FRAME":"TEME","MEAN_ANOMALY":"294.2165","PERIOD":"95.592","ARG_OF_PERICENTER":"65.8973","MEAN_MOTION":"15.06404510","GP_ID":"200541771","OBJECT_NAME":"STARLINK-1377","DECAY_DATE":null,"ECCENTRICITY":"0.00014200","OBJECT_ID":"2020-025S","SITE":"AFETR","SEMIMAJOR_AXIS":"6925.335","CLASSIFICATION_TYPE":"U","EPHEMERIS_TYPE":"0","REV_AT_EPOCH":"10895","MEAN_MOTION_DOT":"0.00002879","RCS_SIZE":"LARGE","TIME_SYSTEM":"UTC","BSTAR":"0.00021206000000","CENTER_NAME":"EARTH","ELEMENT_SET_NO":"999"},{"APOAPSIS":"548.718","MEAN_ELEMENT_THEORY":"SGP4","FILE":"3389912","COUNTRY_CODE":"US","NORAD_CAT_ID":"45548","OBJECT_TYPE":"PAYLOAD","LAUNCH_DATE":"2020-04-22","PERIAPSIS":"545.604","RA_OF_ASC_NODE":"63.0396","EPOCH":"2022-04-05T22:13:40.603296","TLE_LINE1":"1 45548U 20025T   22095.92616439  .00007104  00000-0  49511-3 0  9998","TLE_LINE2":"2 45548  53.0554  63.0396 0002248  57.7182 302.4025 15.06417191108980","MEAN_MOTION_DDOT":"0.0000000000000","INCLINATION":"53.0554","BSTAR":"0.00049511000000","CENTER_NAME":"EARTH","ELEMENT_SET_NO":"999","CLASSIFICATION_TYPE":"U","EPHEMERIS_TYPE":"0","REV_AT_EPOCH":"10898","MEAN_MOTION_DOT":"0.00007104","RCS_SIZE":"LARGE","TIME_SYSTEM":"UTC","OBJECT_NAME":"STARLINK-1378","DECAY_DATE":null,"ECCENTRICITY":"0.00022480","OBJECT_ID":"2020-025T","SEMIMAJOR_AXIS":"6925.296","SITE":"AFETR","REF_FRAME":"TEME","MEAN_ANOMALY":"302.4025","PERIOD":"95.591","ARG_OF_PERICENTER":"57.7182","MEAN_MOTION":"15.06417191","GP_ID":"200542521"},{"GP_ID":"200540770","MEAN_MOTION":"15.06396045","PERIOD":"95.592","MEAN_ANOMALY":"292.9153","ARG_OF_PERICENTER":"67.2013","REF_FRAME":"TEME","SITE":"AFETR","SEMIMAJOR_AXIS":"6925.361","OBJECT_ID":"2020-025V","ECCENTRICITY":"0.00016750","DECAY_DATE":null,"OBJECT_NAME":"STARLINK-1390","TIME_SYSTEM":"UTC","RCS_SIZE":"LARGE","MEAN_MOTION_DOT":"0.00002215","EPHEMERIS_TYPE":"0","REV_AT_EPOCH":"10895","CLASSIFICATION_TYPE":"U","ELEMENT_SET_NO":"999","CENTER_NAME":"EARTH","BSTAR":"0.00016757000000","INCLINATION":"53.0556","TLE_LINE1":"1 45550U 20025V   22095.74461072  .00002215  00000-0  16757-3 0  9996","TLE_LINE2":"2 45550  53.0556  63.8594 0001675  67.2013 292.9153 15.06396045108951","MEAN_MOTION_DDOT":"0.0000000000000","EPOCH":"2022-04-05T17:52:14.366208","RA_OF_ASC_NODE":"63.8594","PERIAPSIS":"546.066","LAUNCH_DATE":"2020-04-22","OBJECT_TYPE":"PAYLOAD","NORAD_CAT_ID":"45550","COUNTRY_CODE":"US","FILE":"3389912","MEAN_ELEMENT_THEORY":"SGP4","APOAPSIS":"548.386"}];
